[
    {
        "Altitude(m)": 622200.1346125168,
        "Argument of Periapsis(deg)": 0.0,
        "Eccentricity": 0.0,
        "Inclination(deg)": 60.0,
        "Latitude(deg)": -52.16261388342553,
        "Longitude(deg)": -27.639129349408268,
        "Mean Anomaly(deg)": -65.45449999999995,
        "RAAN(deg)": 120.0,
        "Satellite Name": "Test1 546",
        "Satellite Number": 546,
        "Semi-Major Axis(m)": 6980739.136638005,
        "Time(s)": 0
    },
    {
        "Altitude(m)": 622058.3019965466,
        "Argument of Periapsis(deg)": 0.00010418945913296404,
        "Eccentricity": 0.0,
        "Inclination(deg)": 60.0,
        "Latitude(deg)": -51.79936229992935,
        "Longitude(deg)": -26.87107172672027,
        "Mean Anomaly(deg)": -64.8343938545381,
        "RAAN(deg)": 119.99957995086024,
        "Satellite Name": "Test1 546",
        "Satellite Number": 546,
        "Semi-Major Axis(m)": 6980739.136638005,
        "Time(s)": 10
    }
]